COSMOS 2507 (RODNIK-S *)
1 40920U 15050A   26176.60364660  .00000053  00000+0  31124-3 0  9990
2 40920  82.4923  74.4298 0009817 338.7130  21.3540 12.42927116487907
COSMOS 2508 (RODNIK-S *)
1 40921U 15050B   26176.63924448 -.00000047  00000+0 -40976-3 0  9990
2 40921  82.4876  72.9095 0014840   9.3106 350.8246 12.42914233487896
COSMOS 2509 (RODNIK-S *)
1 40922U 15050C   26176.65979183 -.00000015  00000+0 -18297-3 0  9995
2 40922  82.4884  72.9999 0015472  25.6431 334.5412 12.42883876487930
LINGQIAO VIDEO A        
1 40959U 15057B   26176.62439264  .00000979  00000+0  14415-3 0  9995
2 40959  97.6622 171.0101 0015223 240.2227 119.7470 14.77403391576651
LINGQIAO VIDEO B        
1 40960U 15057C   26176.60045939  .00000235  00000+0  39762-4 0  9995
2 40960  97.6588 172.1486 0015408 240.2736 119.6942 14.77507005576696
JILIN-1                 
1 40961U 15057D   26176.54254636  .00000781  00000+0  11438-3 0  9990
2 40961  97.6508 175.4943 0015603 233.0281 126.9502 14.78172624576841
FOX-1A (AO-85)          
1 40967U 15058D   26176.53558108  .00002298  00000+0  21215-3 0  9996
2 40967  64.7749 253.0389 0130941  53.3453 307.9612 14.91002473114810
SINOD-D 1               
1 40968U 15058E   26176.50171264  .00003264  00000+0  26556-3 0  9995
2 40968  64.7740 232.8740 0119604  49.7938 311.3569 14.95949500117906
ELEKTRO-L 2             
1 41105U 15074A   26175.45272256 -.00000115  00000+0  00000+0 0  9998
2 41105   6.7126  70.4366 0000704 278.7793  71.8306  1.00271170 38572
DAMPE                   
1 41173U 15078A   26176.60082839  .00001425  00000+0  50368-4 0  9992
2 41173  97.4561 182.1091 0013503  51.2625 308.9820 15.30805262585836
ORBCOMM FM110           
1 41182U 15081D   26175.84279752  .00000566  00000+0  15591-3 0  9996
2 41182  47.0030 325.2449 0002554 122.0857 238.0278 14.58890386558743
ORBCOMM FM112           
1 41184U 15081F   26176.49784057  .00000383  00000+0  11714-3 0  9999
2 41184  46.9976 230.9484 0004072 250.8293 109.2152 14.58913169560168
ORBCOMM FM113           
1 41185U 15081G   26175.85835780  .00000236  00000+0  86127-4 0  9997
2 41185  46.9996 234.3526 0002552 251.1934 108.8675 14.58864475560051
ORBCOMM FM108           
1 41187U 15081J   26175.95764863  .00000420  00000+0  12507-3 0  9998
2 41187  47.0038 145.4578 0003137 251.0039 109.0507 14.58881881561212
ORBCOMM FM117           
1 41188U 15081K   26176.19715664  .00000265  00000+0  92277-4 0  9991
2 41188  46.9999 142.9570 0003660 255.2052 104.8429 14.58870148561291
ORBCOMM FM116           
1 41189U 15081L   26176.51992164  .00000412  00000+0  12318-3 0  9991
2 41189  47.0011 231.2222 0000644 150.1988 209.8935 14.58892527560152
HORYU-4                 
1 41340U 16012D   26175.92351499  .00887715  38476-3  12685-2 0  9996
2 41340  30.9835  21.9003 0008451 319.1648  40.8382 16.04340254572050
ZIYUAN 3-02 (ZY 3-02)   
1 41556U 16033A   26176.60923646  .00006193  00000+0  27973-3 0  9991
2 41556  97.3838 252.2216 0012438 258.2957 101.6883 15.21253391559263
CARTOSAT-2C             
1 41599U 16040A   26176.62301410  .00007330  00000+0  35038-3 0  9992
2 41599  97.4488 236.4852 0010494 105.4924 254.7471 15.19256930554996
LAPAN-A3                
1 41603U 16040E   26176.61079344  .00004069  00000+0  12924-3 0  9990
2 41603  97.1488 172.4796 0009812 356.6149   3.5026 15.33155066556101
GAOFEN-3                
1 41727U 16049A   26176.61747149 -.00000008  00000+0  10868-4 0  9997
2 41727  98.4014 184.2762 0001567  96.6293 263.5075 14.42216125519868
CAS-2T & KS-1Q          
1 41847U 16066G   26176.20550696  .00001561  00000+0  22533-3 0  9998
2 41847  98.3820 251.8502 0342889 105.2370 258.6999 14.44718564505957
YUNHAI-1 01             
1 41857U 16068A   26176.61815720  .00000412  00000+0  16832-3 0  9997
2 41857  98.5846 187.5460 0005700  35.2616 324.8944 14.32428712503032
RESOURCESAT-2A          
1 41877U 16074A   26176.58702572  .00000285  00000+0  15018-3 0  9995
2 41877  98.7526 250.0232 0003233  68.3753 291.7768 14.21619761495492
