OBJECT_NAME,OBJECT_ID,EPOCH,MEAN_MOTION,ECCENTRICITY,INCLINATION,RA_OF_ASC_NODE,ARG_OF_PERICENTER,MEAN_ANOMALY,EPHEMERIS_TYPE,CLASSIFICATION_TYPE,NORAD_CAT_ID,ELEMENT_SET_NO,REV_AT_EPOCH,BSTAR,MEAN_MOTION_DOT,MEAN_MOTION_DDOT
COSMOS 2507 (RODNIK-S 13),2015-050A,2026-06-25T14:29:15.066240,12.42927116,.00098178,82.4923,74.4298,338.7130,21.3540,0,U,40920,999,48790,.31123573E-3,.53E-6,0
COSMOS 2508 (RODNIK-S 14),2015-050B,2026-06-25T15:20:30.723072,12.42914233,.001484,82.4876,72.9095,9.3106,350.8246,0,U,40921,999,48789,-.4097621E-3,-.47E-6,0
COSMOS 2509 (RODNIK-S 15),2015-050C,2026-06-25T15:50:06.014112,12.42883876,.00154721,82.4884,72.9999,25.6431,334.5412,0,U,40922,999,48793,-.18296533E-3,-.15E-6,0
LINGQIAO VIDEO A,2015-057B,2026-06-25T14:59:07.524096,14.77403391,.00152233,97.6622,171.0101,240.2227,119.7470,0,U,40959,999,57665,.14414757E-3,.979E-5,0
LINGQIAO VIDEO B,2015-057C,2026-06-25T14:24:39.691296,14.77507005,.00154087,97.6588,172.1486,240.2736,119.6942,0,U,40960,999,57669,.39762169E-4,.235E-5,0
JILIN-1,2015-057D,2026-06-25T13:01:16.005504,14.78172624,.00156037,97.6508,175.4943,233.0281,126.9502,0,U,40961,999,57684,.11438066E-3,.781E-5,0
FOX-1A (AO-85),2015-058D,2026-06-25T12:51:14.205312,14.91002473,.01309415,64.7749,253.0389,53.3453,307.9612,0,U,40967,999,11481,.21214642E-3,.2298E-4,0
SINOD-D 1,2015-058E,2026-06-25T12:02:27.972096,14.95949500,.0119604,64.7740,232.8740,49.7938,311.3569,0,U,40968,999,11790,.2655586E-3,.3264E-4,0
ELEKTRO-L 2,2015-074A,2026-06-24T10:51:55.229184,1.00271170,.00007049,6.7126,70.4366,278.7793,71.8306,0,U,41105,999,3857,0,-.115E-5,0
DAMPE,2015-078A,2026-06-25T14:25:11.572896,15.30805262,.00135031,97.4561,182.1091,51.2625,308.9820,0,U,41173,999,58583,.50367975E-4,.1425E-4,0
ORBCOMM FM110,2015-081D,2026-06-24T20:13:37.705728,14.58890386,.00025549,47.0030,325.2449,122.0857,238.0278,0,U,41182,999,55874,.15591008E-3,.566E-5,0
ORBCOMM FM112,2015-081F,2026-06-25T11:56:53.425248,14.58913169,.00040725,46.9976,230.9484,250.8293,109.2152,0,U,41184,999,56016,.11713716E-3,.383E-5,0
ORBCOMM FM113,2015-081G,2026-06-24T20:36:02.113920,14.58864475,.0002552,46.9996,234.3526,251.1934,108.8675,0,U,41185,999,56005,.86126666E-4,.236E-5,0
ORBCOMM FM108,2015-081J,2026-06-24T22:59:00.841632,14.58881881,.00031379,47.0038,145.4578,251.0039,109.0507,0,U,41187,999,56121,.12507478E-3,.42E-5,0
ORBCOMM FM117,2015-081K,2026-06-25T04:43:54.333696,14.58870148,.000366,46.9999,142.9570,255.2052,104.8429,0,U,41188,999,56129,.92277031E-4,.265E-5,0
ORBCOMM FM116,2015-081L,2026-06-25T12:28:41.229696,14.58892527,.00006445,47.0011,231.2222,150.1988,209.8935,0,U,41189,999,56015,.12318163E-3,.412E-5,0
HORYU-4,2016-012D,2026-06-24T22:09:51.695136,16.04340254,.00084519,30.9835,21.9003,319.1648,40.8382,0,U,41340,999,57205,.12684942E-2,.887715E-2,.38475701E-3
ZIYUAN 3-02 (ZY 3-02),2016-033A,2026-06-25T14:37:18.030144,15.21253391,.00124384,97.3838,252.2216,258.2957,101.6883,0,U,41556,999,55926,.27973105E-3,.6193E-4,0
CARTOSAT-2C,2016-040A,2026-06-25T14:57:08.418240,15.19256930,.00104942,97.4488,236.4852,105.4924,254.7471,0,U,41599,999,55499,.35038357E-3,.733E-4,0
LAPAN-A3,2016-040E,2026-06-25T14:39:32.553216,15.33155066,.0009812,97.1488,172.4796,356.6149,3.5026,0,U,41603,999,55610,.12924167E-3,.4069E-4,0
GAOFEN-3,2016-049A,2026-06-25T14:49:09.536736,14.42216125,.00015678,98.4014,184.2762,96.6293,263.5075,0,U,41727,999,51986,.10867972E-4,-.8E-7,0
CAS-2T & KS-1Q,2016-066G,2026-06-25T04:55:55.801344,14.44718564,.03428891,98.3820,251.8502,105.2370,258.6999,0,U,41847,999,50595,.22533001E-3,.1561E-4,0
YUNHAI-1 01,2016-068A,2026-06-25T14:50:08.782080,14.32428712,.00057005,98.5846,187.5460,35.2616,324.8944,0,U,41857,999,50303,.16832277E-3,.412E-5,0
RESOURCESAT-2A,2016-074A,2026-06-25T14:05:19.022208,14.21619761,.00032337,98.7526,250.0232,68.3753,291.7768,0,U,41877,999,49549,.15018243E-3,.285E-5,0
